SCS-01 D                
1 63985U 25100D   26068.75607686  .00032471  00000+0  10528-2 0  9990
2 63985  97.3730 145.4097 0006346 266.2302  93.8214 15.31902149 45621
STARLINK-34287          
1 64670U 25139G   26068.42750367  .00020883  00000+0  71520-3 0  9997
2 64670  53.1591 128.2814 0001543  80.1154 280.0021 15.30200509 40245
